FLOCK 4G-8              
1 62613U 25009E   26068.72381419  .00013559  00000+0  50438-3 0  9996
2 62613  97.4045 151.2834 0003050 315.2538  44.8455 15.27623414 63721
STARLINK-33972          
1 63893U 25095D   26068.34021204  .00031600  00000+0  11528-2 0  9996
2 63893  42.9977 178.2585 0000169 193.4438 166.6409 15.27582978 47730
